NORAD_CAT_ID,OBJECT_NAME,OBJECT_TYPE,EPOCH,MEAN_MOTION,ECCENTRICITY,INCLINATION,RA_OF_ASC_NODE,ARG_OF_PERICENTER,MEAN_ANOMALY,BSTAR,MEAN_MOTION_DOT,MEAN_MOTION_DDOT,TLE_LINE0,TLE_LINE1,TLE_LINE2,SEMIMAJOR_AXIS,PERIOD,APOGEE,PERIGEE,DECAYED
56797.0,STARLINK-6058,PAYLOAD,2023-06-14 14:00:01,15.75686803,0.00035,70.002,13.1015,267.2353,112.0634,-0.0068309,-0.00940806,0.0,0 STARLINK-6058,1 56797U 23078AG  23165.58334491 -.00940806  00000-0 -68309-2 0  9995,2 56797  70.0020  13.1015 0003500 267.2353 112.0634 15.75686803  1302,6720.815,91.389,345.032,340.327,0.0
56797.0,STARLINK-6058,PAYLOAD,2023-06-14 20:00:01,15.75145342,0.0003495,70.0021,12.3927,271.6406,85.116,-0.0064483,-0.0087421,0.0,0 STARLINK-6058,1 56797U 23078AG  23165.83334491 -.00874210  00000-0 -64483-2 0  9997,2 56797  70.0021  12.3927 0003495 271.6406  85.1160 15.75145342  2591,6722.355,91.42,346.569,341.87,0.0
56797.0,STARLINK-6058,PAYLOAD,2023-06-14 22:00:00,15.74984927,0.0003381,70.0021,12.1566,274.8176,194.3142,-0.0064443,-0.00868135,0.0,0 STARLINK-6058,1 56797U 23078AG  23165.91667824 -.00868135  00000-0 -64443-2 0  9990,2 56797  70.0021  12.1566 0003381 274.8176 194.3142 15.74984927  1301,6722.811,91.429,346.949,342.403,0.0
56797.0,STARLINK-6058,PAYLOAD,2023-06-15 12:00:02,15.74086345,0.0003533,70.0017,10.5057,267.5831,266.9553,0.0007486,0.00108431,0.0,0 STARLINK-6058,1 56797U 23078AG  23166.50002315  .00108431  00000-0  74860-3 0  9993,2 56797  70.0017  10.5057 0003533 267.5831 266.9553 15.74086345  2691,6725.369,91.482,349.61,344.858,0.0
56797.0,STARLINK-6058,PAYLOAD,2023-06-15 14:00:01,15.74128876,0.0003566,70.0019,10.27,267.97,18.5802,0.00036809,0.00052951,0.0,0 STARLINK-6058,1 56797U 23078AG  23166.58334491  .00052951  00000-0  36809-3 0  9990,2 56797  70.0019  10.2700 0003566 267.9700  18.5802 15.74128876  1301,6725.248,91.479,349.511,344.715,0.0
56797.0,STARLINK-6058,PAYLOAD,2023-06-15 20:00:01,15.74143648,0.0003619,70.0014,9.563,273.0441,349.8087,0.00036108,0.00051965,0.0,0 STARLINK-6058,1 56797U 23078AG  23166.83334491  .00051965  00000-0  36108-3 0  9994,2 56797  70.0014   9.5630 0003619 273.0441 349.8087 15.74143648  1307,6725.206,91.478,349.505,344.637,0.0
56797.0,STARLINK-6058,PAYLOAD,2023-06-16 04:00:00,15.72578885,0.0003814,70.0009,8.6224,271.0581,77.8968,-0.007807,-0.00939808,0.0,0 STARLINK-6058,1 56797U 23078AG  23167.16667824 -.00939808  00000-0 -78070-2 0  9996,2 56797  70.0009   8.6224 0003814 271.0581  77.8968 15.72578885  2805,6729.667,91.569,354.098,348.965,0.0
56797.0,STARLINK-6058,PAYLOAD,2023-06-16 14:00:01,15.71766611,0.0003659,70.0013,7.4468,265.5154,280.9356,-0.0079889,-0.00930005,0.0,0 STARLINK-6058,1 56797U 23078AG  23167.58334491 -.00930005  00000-0 -79889-2 0  9992,2 56797  70.0013   7.4468 0003659 265.5154 280.9356 15.71766611  1305,6731.985,91.617,356.313,351.387,0.0
56797.0,STARLINK-6058,PAYLOAD,2023-06-16 20:00:01,15.7122937,0.0003685,70.001,6.7422,272.0449,248.3404,-0.0075859,-0.00869618,0.0,0 STARLINK-6058,1 56797U 23078AG  23167.83334491 -.00869618  00000-0 -75859-2 0  9994,2 56797  70.0010   6.7422 0003685 272.0449 248.3404 15.71229370  2908,6733.519,91.648,357.866,352.903,0.0
56797.0,STARLINK-6058,PAYLOAD,2023-06-16 22:00:00,15.71062003,0.0003701,70.0012,6.5074,271.7629,359.827,-0.0074736,-0.00852489,0.0,0 STARLINK-6058,1 56797U 23078AG  23167.91667824 -.00852489  00000-0 -74736-2 0  9993,2 56797  70.0012   6.5074 0003701 271.7629 359.8270 15.71062003  1306,6733.998,91.658,358.355,353.37,0.0
56797.0,STARLINK-6058,PAYLOAD,2023-06-17 09:04:35,15.70571864,0.0004877,70.0008,5.2091,297.5115,62.5585,-0.0024876,-0.00297051,0.0,0 STARLINK-6058,1 56797U 23078AG  23168.37818448 -.00297051  00000-0 -24876-2 0  9992,2 56797  70.0008   5.2091 0004877 297.5115  62.5585 15.70571864  2999,6735.399,91.686,360.548,353.979,0.0
56797.0,STARLINK-6058,PAYLOAD,2023-06-17 12:08:03,15.70359763,0.0003782,70.0009,4.8504,272.8515,87.2248,-0.0023345,-0.00276874,0.0,0 STARLINK-6058,1 56797U 23078AG  23168.50559869 -.00276874  00000-0 -23345-2 0  9996,2 56797  70.0009   4.8504 0003782 272.8515  87.2248 15.70359763  2754,6736.005,91.699,360.418,355.322,0.0
56797.0,STARLINK-6058,PAYLOAD,2023-06-17 16:43:18,15.70136349,0.0003358,70.001,4.3128,269.7995,90.2816,-0.0015691,-0.00186394,0.0,0 STARLINK-6058,1 56797U 23078AG  23168.69673852 -.00186394  00000-0 -15691-2 0  9997,2 56797  70.0010   4.3128 0003358 269.7995  90.2816 15.70136349  3040,6736.644,91.712,360.771,356.247,0.0
56797.0,STARLINK-6058,PAYLOAD,2023-06-17 19:46:47,15.70058377,0.000339,70.0009,3.9547,270.2857,89.795,-0.00097384,-0.00116348,0.0,0 STARLINK-6058,1 56797U 23078AG  23168.82416423 -.00116348  00000-0 -97384-3 0  9993,2 56797  70.0009   3.9547 0003390 270.2857  89.7950 15.70058377  2807,6736.867,91.716,361.016,356.448,0.0
56797.0,STARLINK-6058,PAYLOAD,2023-06-18 04:00:00,15.6998616,0.0003529,70.0005,2.9916,267.3726,227.9272,-0.0010063,-0.00119815,0.0,0 STARLINK-6058,1 56797U 23078AG  23169.16667824 -.00119815  00000-0 -10063-2 0  9994,2 56797  70.0005   2.9916 0003529 267.3726 227.9272 15.69986160  3114,6737.074,91.721,361.316,356.561,0.0
56797.0,STARLINK-6058,PAYLOAD,2023-06-18 12:00:00,15.69925216,0.0003605,70.0007,2.0543,260.6111,318.0386,8.993e-05,0.00010615,0.0,0 STARLINK-6058,1 56797U 23078AG  23169.50001157  .00010615  00000-0  89930-4 0  9990,2 56797  70.0007   2.0543 0003605 260.6111 318.0386 15.69925216  3160,6737.248,91.724,361.542,356.684,0.0
56797.0,STARLINK-6058,PAYLOAD,2023-06-18 12:36:03,15.69932828,0.0003622,70.0007,1.9838,264.4884,95.5899,0.0002622,0.00031446,0.0,0 STARLINK-6058,1 56797U 23078AG  23169.52504325  .00031446  00000-0  26220-3 0  9994,2 56797  70.0007   1.9838 0003622 264.4884  95.5899 15.69932828  2918,6737.226,91.724,361.531,356.651,0.0
56797.0,STARLINK-6058,PAYLOAD,2023-06-18 22:00:00,15.69889196,0.0003503,70.0009,0.8826,269.4113,143.4265,0.0006889,0.0008333,0.0,0 STARLINK-6058,1 56797U 23078AG  23169.91667824  .00083330  00000-0  68890-3 0  9999,2 56797  70.0009   0.8826 0003503 269.4113 143.4265 15.69889196  1304,6737.351,91.726,361.576,356.856,0.0
56797.0,STARLINK-6058,PAYLOAD,2023-06-19 04:00:00,15.69977943,0.0003475,70.0006,0.1797,267.3997,117.9233,-0.00089519,-0.00106737,0.0,0 STARLINK-6058,1 56797U 23078AG  23170.16667824 -.00106737  00000-0 -89519-3 0  9998,2 56797  70.0006   0.1797 0003475 267.3997 117.9233 15.69977943  3273,6737.097,91.721,361.303,356.621,0.0
56797.0,STARLINK-6058,PAYLOAD,2023-06-19 08:28:50,15.69954433,0.0003559,70.0009,359.6547,268.3387,91.7401,0.00052013,0.0006288,0.0,0 STARLINK-6058,1 56797U 23078AG  23170.35335657  .00062880  00000-0  52013-3 0  9992,2 56797  70.0009 359.6547 0003559 268.3387  91.7401 15.69954433  3307,6737.164,91.722,361.427,356.632,0.0
56797.0,STARLINK-6058,PAYLOAD,2023-06-19 13:04:05,15.69937201,0.0003618,70.0008,359.1177,265.539,94.5392,0.00012393,0.00014724,0.0,0 STARLINK-6058,1 56797U 23078AG  23170.54450754  .00014724  00000-0  12393-3 0  9990,2 56797  70.0008 359.1177 0003618 265.5390  94.5392 15.69937201  3077,6737.214,91.723,361.516,356.641,0.0
56797.0,STARLINK-6058,PAYLOAD,2023-06-19 20:00:01,15.69887589,0.0003562,70.0011,358.3055,270.2807,281.7435,0.00040535,0.00048739,0.0,0 STARLINK-6058,1 56797U 23078AG  23170.83334491  .00048739  00000-0  40535-3 0  9993,2 56797  70.0011 358.3055 0003562 270.2807 281.7435 15.69887589  3375,6737.356,91.726,361.62,356.821,0.0
56797.0,STARLINK-6058,PAYLOAD,2023-06-19 22:00:00,15.69887661,0.0003554,70.0011,358.0711,271.449,31.4032,0.00053586,0.00064622,0.0,0 STARLINK-6058,1 56797U 23078AG  23170.91667824  .00064622  00000-0  53586-3 0  9990,2 56797  70.0011 358.0711 0003554 271.4490  31.4032 15.69887661  1308,6737.355,91.726,361.615,356.826,0.0
56797.0,STARLINK-6058,PAYLOAD,2023-06-20 12:00:00,15.69948487,0.0003524,70.001,356.431,265.0363,93.6312,-0.00021639,-0.00026178,0.0,0 STARLINK-6058,1 56797U 23078AG  23171.50001157 -.00026178  00000-0 -21639-3 0  9997,2 56797  70.0010 356.4310 0003524 265.0363  93.6312 15.69948487  3485,6737.181,91.723,361.421,356.672,0.0
56797.0,STARLINK-6058,PAYLOAD,2023-06-20 14:00:01,15.69972654,0.0003505,70.0011,356.1964,266.0702,203.4296,-0.00073044,-0.00087314,0.0,0 STARLINK-6058,1 56797U 23078AG  23171.58334491 -.00087314  00000-0 -73044-3 0  9991,2 56797  70.0011 356.1964 0003505 266.0702 203.4296 15.69972654  1309,6737.112,91.721,361.339,356.616,0.0
56797.0,STARLINK-6058,PAYLOAD,2023-06-20 22:00:00,15.69885852,0.0003393,70.001,355.2592,273.1853,279.6777,0.00057467,0.0006935,0.0,0 STARLINK-6058,1 56797U 23078AG  23171.91667824  .00069350  00000-0  57467-3 0  9996,2 56797  70.0010 355.2592 0003393 273.1853 279.6777 15.69885852  1308,6737.361,91.726,361.512,356.94,0.0
56797.0,STARLINK-6058,PAYLOAD,2023-06-21 01:46:08,15.6993032,0.0003414,70.0012,354.8175,270.7787,89.3018,0.00038566,0.00046429,0.0,0 STARLINK-6058,1 56797U 23078AG  23172.07371063  .00046429  00000-0  38566-3 0  9992,2 56797  70.0012 354.8175 0003414 270.7787  89.3018 15.69930320  3571,6737.233,91.724,361.398,356.798,0.0
56797.0,STARLINK-6058,PAYLOAD,2023-06-21 12:28:24,15.69940189,0.0003545,70.0012,353.5634,273.7932,86.2858,0.00041402,0.00049901,0.0,0 STARLINK-6058,1 56797U 23078AG  23172.51972682  .00049901  00000-0  41402-3 0  9996,2 56797  70.0012 353.5634 0003545 273.7932  86.2858 15.69940189  3647,6737.205,91.723,361.458,356.682,0.0
56797.0,STARLINK-6058,PAYLOAD,2023-06-21 14:00:09,15.69945095,0.0003523,70.0013,353.3842,273.7911,86.2882,0.00038591,0.00046489,0.0,0 STARLINK-6058,1 56797U 23078AG  23172.58344264  .00046489  00000-0  38591-3 0  9995,2 56797  70.0013 353.3842 0003523 273.7911  86.2882 15.69945095  3390,6737.191,91.723,361.43,356.683,0.0
56797.0,STARLINK-6058,PAYLOAD,2023-06-21 20:07:09,15.69969033,0.0003447,70.0015,352.6679,266.9835,93.0966,0.00041731,0.00050361,0.0,0 STARLINK-6058,1 56797U 23078AG  23172.83830310  .00050361  00000-0  41731-3 0  9999,2 56797  70.0015 352.6679 0003447 266.9835  93.0966 15.69969033  3438,6737.123,91.722,361.31,356.665,0.0
